[{"OBJECT_NAME":"STARLINK-34548","OBJECT_ID":"2025-142W","EPOCH":"2026-03-09T21:20:20.957280","MEAN_MOTION":14.99752914,"ECCENTRICITY":0.00111598,"INCLINATION":70.0032,"RA_OF_ASC_NODE":313.8354,"ARG_OF_PERICENTER":256.7432,"MEAN_ANOMALY":103.2483,"EPHEMERIS_TYPE":0,"CLASSIFICATION_TYPE":"U","NORAD_CAT_ID":64716,"ELEMENT_SET_NO":999,"REV_AT_EPOCH":3949,"BSTAR":0.071342808,"MEAN_MOTION_DOT":0.00948623,"MEAN_MOTION_DDOT":0},{"OBJECT_NAME":"ICEYE-X58","OBJECT_ID":"2025-276CP","EPOCH":"2026-03-09T17:41:27.034080","MEAN_MOTION":15.18634062,"ECCENTRICITY":0.0002447,"INCLINATION":97.4274,"RA_OF_ASC_NODE":144.0257,"ARG_OF_PERICENTER":349.5523,"MEAN_ANOMALY":10.566,"EPHEMERIS_TYPE":0,"CLASSIFICATION_TYPE":"U","NORAD_CAT_ID":66751,"ELEMENT_SET_NO":999,"REV_AT_EPOCH":1532,"BSTAR":0.00024630066,"MEAN_MOTION_DOT":5.033e-5,"MEAN_MOTION_DDOT":0}]
